start=new Date('2022-11-10T00:00:00.000Z').valueOf();
sats=[{"TIME_SYSTEM":"UTC","MEAN_ELEMENT_THEORY":"SGP4","EPHEMERIS_TYPE":"0","NORAD_CAT_ID":"47378","MEAN_ANOMALY":"271.9540","OBJECT_ID":"2021-005AF","TLE_LINE1":"1 47378U 21005AF  22313.76009001 -.00014279  00000-0 -94250-3 0  9999","DECAY_DATE":null,"MEAN_MOTION_DOT":"-0.00014279","REF_FRAME":"TEME","INCLINATION":"53.0534","TLE_LINE2":"2 47378  53.0534  80.1445 0001296  88.1597 271.9540 15.06366737100338","ECCENTRICITY":"0.00012960","SITE":"AFETR","PERIOD":"95.594","MEAN_MOTION":"15.06366737","LAUNCH_DATE":"2021-01-20","BSTAR":"-0.00094250000000","RCS_SIZE":"LARGE","SEMIMAJOR_AXIS":"6925.451","EPOCH":"2022-11-09T18:14:31.776864","OBJECT_TYPE":"PAYLOAD","COUNTRY_CODE":"US","GP_ID":"217272519","CENTER_NAME":"EARTH","RA_OF_ASC_NODE":"80.1445","ELEMENT_SET_NO":"999","CLASSIFICATION_TYPE":"U","MEAN_MOTION_DDOT":"0.0000000000000","ARG_OF_PERICENTER":"88.1597","FILE":"3650001","PERIAPSIS":"546.418","OBJECT_NAME":"STARLINK-2098","APOAPSIS":"548.213","REV_AT_EPOCH":"10033"},{"MEAN_MOTION_DDOT":"0.0000000000000","ARG_OF_PERICENTER":"109.6703","FILE":"3650001","OBJECT_NAME":"STARLINK-2099","PERIAPSIS":"546.261","APOAPSIS":"548.226","REV_AT_EPOCH":"10031","GP_ID":"217272769","RA_OF_ASC_NODE":"80.7098","CENTER_NAME":"EARTH","ELEMENT_SET_NO":"999","CLASSIFICATION_TYPE":"U","BSTAR":"-0.00024181000000","LAUNCH_DATE":"2021-01-20","MEAN_MOTION":"15.06390168","SEMIMAJOR_AXIS":"6925.379","RCS_SIZE":"LARGE","EPOCH":"2022-11-09T15:14:04.475328","OBJECT_TYPE":"PAYLOAD","COUNTRY_CODE":"US","TIME_SYSTEM":"UTC","MEAN_ELEMENT_THEORY":"SGP4","NORAD_CAT_ID":"47379","MEAN_ANOMALY":"250.4439","EPHEMERIS_TYPE":"0","OBJECT_ID":"2021-005AG","TLE_LINE2":"2 47379  53.0538  80.7098 0001419 109.6703 250.4439 15.06390168100310","REF_FRAME":"TEME","TLE_LINE1":"1 47379U 21005AG  22313.63477402 -.00003880  00000-0 -24181-3 0  9992","DECAY_DATE":null,"MEAN_MOTION_DOT":"-0.00003880","INCLINATION":"53.0538","ECCENTRICITY":"0.00014190","SITE":"AFETR","PERIOD":"95.593"},{"FILE":"3650001","OBJECT_NAME":"STARLINK-2100","PERIAPSIS":"546.428","APOAPSIS":"548.068","REV_AT_EPOCH":"10020","MEAN_MOTION_DDOT":"0.0000000000000","ARG_OF_PERICENTER":"71.8737","ELEMENT_SET_NO":"999","CLASSIFICATION_TYPE":"U","GP_ID":"217274020","RA_OF_ASC_NODE":"89.9789","CENTER_NAME":"EARTH","RCS_SIZE":"LARGE","SEMIMAJOR_AXIS":"6925.383","EPOCH":"2022-11-09T19:06:18.311328","OBJECT_TYPE":"PAYLOAD","COUNTRY_CODE":"US","LAUNCH_DATE":"2021-01-20","BSTAR":"0.00003339200000","MEAN_MOTION":"15.06388665","OBJECT_ID":"2021-005AH","INCLINATION":"53.0565","TLE_LINE1":"1 47380U 21005AH  22313.79604527  .00000216  00000-0  33392-4 0  9994","DECAY_DATE":null,"MEAN_MOTION_DOT":"0.00000216","REF_FRAME":"TEME","TLE_LINE2":"2 47380  53.0565  89.9789 0001184  71.8737 288.2381 15.06388665100208","ECCENTRICITY":"0.00011840","SITE":"AFETR","PERIOD":"95.593","TIME_SYSTEM":"UTC","MEAN_ELEMENT_THEORY":"SGP4","EPHEMERIS_TYPE":"0","NORAD_CAT_ID":"47380","MEAN_ANOMALY":"288.2381"},{"MEAN_MOTION_DDOT":"0.0000000000000","ARG_OF_PERICENTER":"90.6285","FILE":"3650001","PERIAPSIS":"546.364","OBJECT_NAME":"STARLINK-2101","APOAPSIS":"548.158","REV_AT_EPOCH":"10013","GP_ID":"217274272","RA_OF_ASC_NODE":"94.9850","CENTER_NAME":"EARTH","ELEMENT_SET_NO":"999","CLASSIFICATION_TYPE":"U","BSTAR":"-0.00010106000000","LAUNCH_DATE":"2021-01-20","MEAN_MOTION":"15.06384536","SEMIMAJOR_AXIS":"6925.396","RCS_SIZE":"LARGE","EPOCH":"2022-11-09T19:29:32.966304","OBJECT_TYPE":"PAYLOAD","COUNTRY_CODE":"US","TIME_SYSTEM":"UTC","MEAN_ELEMENT_THEORY":"SGP4","NORAD_CAT_ID":"47381","MEAN_ANOMALY":"269.4852","EPHEMERIS_TYPE":"0","OBJECT_ID":"2021-005AJ","TLE_LINE2":"2 47381  53.0547  94.9850 0001295  90.6285 269.4852 15.06384536100133","REF_FRAME":"TEME","TLE_LINE1":"1 47381U 21005AJ  22313.81218711 -.00001786  00000-0 -10106-3 0  9996","DECAY_DATE":null,"MEAN_MOTION_DOT":"-0.00001786","INCLINATION":"53.0547","ECCENTRICITY":"0.00012950","SITE":"AFETR","PERIOD":"95.593"},{"EPOCH":"2022-11-09T15:44:36.422304","SEMIMAJOR_AXIS":"6925.375","RCS_SIZE":"LARGE","COUNTRY_CODE":"US","OBJECT_TYPE":"PAYLOAD","LAUNCH_DATE":"2021-01-20","MEAN_MOTION":"15.06391279","BSTAR":"-0.00004362800000","TLE_LINE2":"2 47382  53.0545  90.6128 0001377 112.8104 247.3031 15.06391279100171","TLE_LINE1":"1 47382U 21005AK  22313.65597711 -.00000931  00000-0 -43628-4 0  9996","MEAN_MOTION_DOT":"-0.00000931","DECAY_DATE":null,"INCLINATION":"53.0545","REF_FRAME":"TEME","OBJECT_ID":"2021-005AK","PERIOD":"95.593","SITE":"AFETR","ECCENTRICITY":"0.00013770","TIME_SYSTEM":"UTC","NORAD_CAT_ID":"47382","MEAN_ANOMALY":"247.3031","EPHEMERIS_TYPE":"0","MEAN_ELEMENT_THEORY":"SGP4","FILE":"3650001","PERIAPSIS":"546.287","OBJECT_NAME":"STARLINK-2102","REV_AT_EPOCH":"10017","APOAPSIS":"548.194","ARG_OF_PERICENTER":"112.8104","MEAN_MOTION_DDOT":"0.0000000000000","ELEMENT_SET_NO":"999","CLASSIFICATION_TYPE":"U","GP_ID":"217273020","RA_OF_ASC_NODE":"90.6128","CENTER_NAME":"EARTH"},{"TIME_SYSTEM":"UTC","NORAD_CAT_ID":"47383","MEAN_ANOMALY":"270.8077","EPHEMERIS_TYPE":"0","MEAN_ELEMENT_THEORY":"SGP4","TLE_LINE2":"2 47383  53.0544  79.9290 0001276  89.3058 270.8077 15.06381842100340","TLE_LINE1":"1 47383U 21005AL  22313.80708136 -.00003481  00000-0 -21499-3 0  9993","DECAY_DATE":null,"INCLINATION":"53.0544","MEAN_MOTION_DOT":"-0.00003481","REF_FRAME":"TEME","OBJECT_ID":"2021-005AL","PERIOD":"95.593","SITE":"AFETR","ECCENTRICITY":"0.00012760","MEAN_MOTION":"15.06381842","LAUNCH_DATE":"2021-01-20","BSTAR":"-0.00021499000000","EPOCH":"2022-11-09T19:22:11.829504","SEMIMAJOR_AXIS":"6925.404","RCS_SIZE":"LARGE","COUNTRY_CODE":"US","OBJECT_TYPE":"PAYLOAD","GP_ID":"217273270","CENTER_NAME":"EARTH","RA_OF_ASC_NODE":"79.9290","ELEMENT_SET_NO":"999","CLASSIFICATION_TYPE":"U","ARG_OF_PERICENTER":"89.3058","MEAN_MOTION_DDOT":"0.0000000000000","PERIAPSIS":"546.386","FILE":"3650001","OBJECT_NAME":"STARLINK-2103","REV_AT_EPOCH":"10034","APOAPSIS":"548.153"},{"OBJECT_TYPE":"PAYLOAD","COUNTRY_CODE":"US","SEMIMAJOR_AXIS":"6925.392","RCS_SIZE":"LARGE","EPOCH":"2022-11-09T15:23:25.381536","MEAN_MOTION":"15.06385930","LAUNCH_DATE":"2021-01-20","BSTAR":"-0.00017711000000","ECCENTRICITY":"0.00015080","SITE":"AFETR","PERIOD":"95.593","OBJECT_ID":"2021-005AM","TLE_LINE2":"2 47384  53.0542  90.9053 0001508  99.9321 260.1839 15.06385930100178","TLE_LINE1":"1 47384U 21005AM  22313.64126599 -.00002918  00000-0 -17711-3 0  9999","INCLINATION":"53.0542","DECAY_DATE":null,"MEAN_MOTION_DOT":"-0.00002918","REF_FRAME":"TEME","MEAN_ELEMENT_THEORY":"SGP4","NORAD_CAT_ID":"47384","MEAN_ANOMALY":"260.1839","EPHEMERIS_TYPE":"0","TIME_SYSTEM":"UTC","APOAPSIS":"548.301","REV_AT_EPOCH":"10017","FILE":"3650001","PERIAPSIS":"546.212","OBJECT_NAME":"STARLINK-2104","MEAN_MOTION_DDOT":"0.0000000000000","ARG_OF_PERICENTER":"99.9321","CLASSIFICATION_TYPE":"U","ELEMENT_SET_NO":"999","RA_OF_ASC_NODE":"90.9053","CENTER_NAME":"EARTH","GP_ID":"217273520"},{"RA_OF_ASC_NODE":"90.0915","CENTER_NAME":"EARTH","GP_ID":"217273772","CLASSIFICATION_TYPE":"U","ELEMENT_SET_NO":"999","MEAN_MOTION_DDOT":"0.0000000000000","ARG_OF_PERICENTER":"113.3153","APOAPSIS":"548.085","REV_AT_EPOCH":"10019","FILE":"3650001","PERIAPSIS":"546.417","OBJECT_NAME":"STARLINK-2105","MEAN_ELEMENT_THEORY":"SGP4","EPHEMERIS_TYPE":"0","NORAD_CAT_ID":"47385","MEAN_ANOMALY":"246.7963","TIME_SYSTEM":"UTC","ECCENTRICITY":"0.00012040","PERIOD":"95.593","SITE":"AFETR","OBJECT_ID":"2021-005AN","DECAY_DATE":null,"TLE_LINE1":"1 47385U 21005AN  22313.77025113 -.00000872  00000-0 -39688-4 0  9999","REF_FRAME":"TEME","MEAN_MOTION_DOT":"-0.00000872","INCLINATION":"53.0551","TLE_LINE2":"2 47385  53.0551  90.0915 0001204 113.3153 246.7963 15.06387788100197","BSTAR":"-0.00003968800000","LAUNCH_DATE":"2021-01-20","MEAN_MOTION":"15.06387788","OBJECT_TYPE":"PAYLOAD","COUNTRY_CODE":"US","RCS_SIZE":"LARGE","SEMIMAJOR_AXIS":"6925.386","EPOCH":"2022-11-09T18:29:09.697632"},{"RA_OF_ASC_NODE":"90.5644","CENTER_NAME":"EARTH","GP_ID":"217272520","CLASSIFICATION_TYPE":"U","ELEMENT_SET_NO":"999","MEAN_MOTION_DDOT":"0.0000000000000","ARG_OF_PERICENTER":"87.7559","APOAPSIS":"548.047","REV_AT_EPOCH":"10018","FILE":"3650001","OBJECT_NAME":"STARLINK-2106","PERIAPSIS":"546.478","MEAN_ELEMENT_THEORY":"SGP4","EPHEMERIS_TYPE":"0","NORAD_CAT_ID":"47386","MEAN_ANOMALY":"272.3560","TIME_SYSTEM":"UTC","ECCENTRICITY":"0.00011330","PERIOD":"95.593","SITE":"AFETR","OBJECT_ID":"2021-005AP","DECAY_DATE":null,"TLE_LINE1":"1 47386U 21005AP  22313.66703743 -.00004847  00000-0 -30687-3 0  9995","REF_FRAME":"TEME","MEAN_MOTION_DOT":"-0.00004847","INCLINATION":"53.0538","TLE_LINE2":"2 47386  53.0538  90.5644 0001133  87.7559 272.3560 15.06384021100186","LAUNCH_DATE":"2021-01-20","BSTAR":"-0.00030687000000","MEAN_MOTION":"15.06384021","OBJECT_TYPE":"PAYLOAD","COUNTRY_CODE":"US","RCS_SIZE":"LARGE","SEMIMAJOR_AXIS":"6925.398","EPOCH":"2022-11-09T16:00:32.033952"},{"OBJECT_TYPE":"PAYLOAD","COUNTRY_CODE":"US","RCS_SIZE":"LARGE","SEMIMAJOR_AXIS":"6925.510","EPOCH":"2022-11-09T14:05:06.960768","MEAN_MOTION":"15.06347359","LAUNCH_DATE":"2021-01-20","BSTAR":"0.00086266000000","ECCENTRICITY":"0.00014130","SITE":"AFETR","PERIOD":"95.595","OBJECT_ID":"2021-005AQ","TLE_LINE1":"1 47387U 21005AQ  22313.58688612  .00012573  00000-0  86266-3 0  9991","MEAN_MOTION_DOT":"0.00012573","DECAY_DATE":null,"REF_FRAME":"TEME","INCLINATION":"53.0549","TLE_LINE2":"2 47387  53.0549 120.9164 0001413 131.8533 228.2577 15.06347359 99748","MEAN_ELEMENT_THEORY":"SGP4","EPHEMERIS_TYPE":"0","NORAD_CAT_ID":"47387","MEAN_ANOMALY":"228.2577","TIME_SYSTEM":"UTC","APOAPSIS":"548.353","REV_AT_EPOCH":"9974","FILE":"3649650","PERIAPSIS":"546.396","OBJECT_NAME":"STARLINK-2108","MEAN_MOTION_DDOT":"0.0000000000000","ARG_OF_PERICENTER":"131.8533","CLASSIFICATION_TYPE":"U","ELEMENT_SET_NO":"999","RA_OF_ASC_NODE":"120.9164","CENTER_NAME":"EARTH","GP_ID":"217243852"}];
